[{"OBJECT_NAME":"STARLINK-5302","OBJECT_ID":"2023-065BF","EPOCH":"2026-03-09T22:00:01.999584","MEAN_MOTION":15.13980102,"ECCENTRICITY":0.00010945,"INCLINATION":42.9994,"RA_OF_ASC_NODE":221.1829,"ARG_OF_PERICENTER":274.8052,"MEAN_ANOMALY":309.7286,"EPHEMERIS_TYPE":0,"CLASSIFICATION_TYPE":"U","NORAD_CAT_ID":56556,"ELEMENT_SET_NO":999,"REV_AT_EPOCH":578,"BSTAR":0.0064037634,"MEAN_MOTION_DOT":0.00120052,"MEAN_MOTION_DDOT":0},{"OBJECT_NAME":"LEGION 3","OBJECT_ID":"2024-146A","EPOCH":"2026-03-09T21:00:06.623424","MEAN_MOTION":15.16154835,"ECCENTRICITY":0.00135587,"INCLINATION":45.0003,"RA_OF_ASC_NODE":202.9187,"ARG_OF_PERICENTER":321.2712,"MEAN_ANOMALY":38.7194,"EPHEMERIS_TYPE":0,"CLASSIFICATION_TYPE":"U","NORAD_CAT_ID":60452,"ELEMENT_SET_NO":999,"REV_AT_EPOCH":8695,"BSTAR":0.00032920336,"MEAN_MOTION_DOT":6.211e-5,"MEAN_MOTION_DDOT":0}]
